{
  "type": "FeatureCollection",
  "features": [
    {
      "type": "Feature",
      "properties": {
        "norad_id": 35052,
        "name": "IRIDIUM 33 DEB",
        "group": "iridium-33-debris",
        "lat": -66.82484435384806,
        "lon": 11.213935462534923,
        "alt_km": 779.0328584744593,
        "timestamp": "2025-12-14T05:42:18.847128+00:00",
        "meta_object_name": "IRIDIUM 33 DEB",
        "meta_object_id": "1997-051NY",
        "meta_epoch": "2025-12-13T01:38:09.843936",
        "meta_mean_motion": 14.38492837,
        "meta_eccentricity": 0.00136697,
        "meta_inclination": 86.331,
        "meta_ra_of_asc_node": 20.3356,
        "meta_arg_of_pericenter": 84.1848,
        "meta_mean_anomaly": 276.0908,
        "meta_ephemeris_type": 0,
        "meta_classification_type": "U",
        "meta_norad_cat_id": 35052,
        "meta_element_set_no": 999,
        "meta_rev_at_epoch": 87280,
        "meta_bstar": 0.00026714686,
        "meta_mean_motion_dot": 8.36e-06,
        "meta_mean_motion_ddot": 0,
        "tle_line1": "1 35052U 97051NY  25347.06816949  .00000836  00000+0  26715-3 0  9991",
        "tle_line2": "2 35052  86.3310  20.3356 0013669  84.1848 276.0908 14.38492837872801"
      },
      "geometry": {
        "type": "Point",
        "coordinates": [
          11.213935462534923,
          -66.82484435384806
        ]
      }
    },
    {
      "type": "Feature",
      "properties": {
        "norad_id": 35080,
        "name": "IRIDIUM 33 DEB",
        "group": "iridium-33-debris",
        "lat": 4.405902085870124,
        "lon": 51.95243455561453,
        "alt_km": 653.4988824022703,
        "timestamp": "2025-12-14T05:42:18.847138+00:00",
        "meta_object_name": "IRIDIUM 33 DEB",
        "meta_object_id": "1997-051PF",
        "meta_epoch": "2025-12-12T03:35:19.907808",
        "meta_mean_motion": 14.85960238,
        "meta_eccentricity": 0.00604695,
        "meta_inclination": 86.207,
        "meta_ra_of_asc_node": 52.6577,
        "meta_arg_of_pericenter": 181.932,
        "meta_mean_anomaly": 178.1681,
        "meta_ephemeris_type": 0,
        "meta_classification_type": "U",
        "meta_norad_cat_id": 35080,
        "meta_element_set_no": 999,
        "meta_rev_at_epoch": 69679,
        "meta_bstar": 0.0091733841,
        "meta_mean_motion_dot": 0.00083628,
        "meta_mean_motion_ddot": 0,
        "tle_line1": "1 35080U 97051PF  25346.14953597  .00083628  00000+0  91734-2 0  9993",
        "tle_line2": "2 35080  86.2070  52.6577 0060469 181.9320 178.1681 14.85960238696797"
      },
      "geometry": {
        "type": "Point",
        "coordinates": [
          51.95243455561453,
          4.405902085870124
        ]
      }
    },
    {
      "type": "Feature",
      "properties": {
        "norad_id": 35297,
        "name": "IRIDIUM 33 DEB",
        "group": "iridium-33-debris",
        "lat": -55.97591135621727,
        "lon": -112.5086550910769,
        "alt_km": 750.979050437717,
        "timestamp": "2025-12-14T05:42:18.847148+00:00",
        "meta_object_name": "IRIDIUM 33 DEB",
        "meta_object_id": "1997-051PM",
        "meta_epoch": "2025-12-12T22:42:20.538720",
        "meta_mean_motion": 14.45159336,
        "meta_eccentricity": 0.00177378,
        "meta_inclination": 86.3854,
        "meta_ra_of_asc_node": 62.6701,
        "meta_arg_of_pericenter": 139.4968,
        "meta_mean_anomaly": 220.7558,
        "meta_ephemeris_type": 0,
        "meta_classification_type": "U",
        "meta_norad_cat_id": 35297,
        "meta_element_set_no": 999,
        "meta_rev_at_epoch": 70429,
        "meta_bstar": 0.0010165954,
        "meta_mean_motion_dot": 3.583e-05,
        "meta_mean_motion_ddot": 0,
        "tle_line1": "1 35297U 97051PM  25346.94607105  .00003583  00000+0  10166-2 0  9994",
        "tle_line2": "2 35297  86.3854  62.6701 0017737 139.4968 220.7558 14.45159336704291"
      },
      "geometry": {
        "type": "Point",
        "coordinates": [
          -112.5086550910769,
          -55.97591135621727
        ]
      }
    },
    {
      "type": "Feature",
      "properties": {
        "norad_id": 35299,
        "name": "IRIDIUM 33 DEB",
        "group": "iridium-33-debris",
        "lat": 33.74324474011898,
        "lon": -149.95083163056754,
        "alt_km": 725.5669729732572,
        "timestamp": "2025-12-14T05:42:18.847159+00:00",
        "meta_object_name": "IRIDIUM 33 DEB",
        "meta_object_id": "1997-051PP",
        "meta_epoch": "2025-12-13T14:44:02.418432",
        "meta_mean_motion": 14.40867678,
        "meta_eccentricity": 0.00589789,
        "meta_inclination": 86.2888,
        "meta_ra_of_asc_node": 32.8056,
        "meta_arg_of_pericenter": 99.6043,
        "meta_mean_anomaly": 52.2893,
        "meta_ephemeris_type": 0,
        "meta_classification_type": "U",
        "meta_norad_cat_id": 35299,
        "meta_element_set_no": 999,
        "meta_rev_at_epoch": 86343,
        "meta_bstar": 0.0010090204,
        "meta_mean_motion_dot": 3.321e-05,
        "meta_mean_motion_ddot": 0,
        "tle_line1": "1 35299U 97051PP  25347.61391688  .00003321  00000+0  10090-2 0  9993",
        "tle_line2": "2 35299  86.2888  32.8056 0058978  99.6043  52.2893 14.40867678863436"
      },
      "geometry": {
        "type": "Point",
        "coordinates": [
          -149.95083163056754,
          33.74324474011898
        ]
      }
    },
    {
      "type": "Feature",
      "properties": {
        "norad_id": 35480,
        "name": "IRIDIUM 33 DEB",
        "group": "iridium-33-debris",
        "lat": -66.17372616427733,
        "lon": 15.96858020390161,
        "alt_km": 744.6379427564516,
        "timestamp": "2025-12-14T05:42:18.847169+00:00",
        "meta_object_name": "IRIDIUM 33 DEB",
        "meta_object_id": "1997-051QA",
        "meta_epoch": "2025-12-09T19:59:43.135296",
        "meta_mean_motion": 14.49744632,
        "meta_eccentricity": 0.00159269,
        "meta_inclination": 86.357,
        "meta_ra_of_asc_node": 26.1722,
        "meta_arg_of_pericenter": 113.2937,
        "meta_mean_anomaly": 246.9945,
        "meta_ephemeris_type": 0,
        "meta_classification_type": "U",
        "meta_norad_cat_id": 35480,
        "meta_element_set_no": 999,
        "meta_rev_at_epoch": 86989,
        "meta_bstar": 0.0009193458,
        "meta_mean_motion_dot": 3.565e-05,
        "meta_mean_motion_ddot": 0,
        "tle_line1": "1 35480U 97051QA  25343.83313814  .00003565  00000+0  91935-3 0  9998",
        "tle_line2": "2 35480  86.3570  26.1722 0015926 113.2937 246.9945 14.49744632869893"
      },
      "geometry": {
        "type": "Point",
        "coordinates": [
          15.96858020390161,
          -66.17372616427733
        ]
      }
    },
    {
      "type": "Feature",
      "properties": {
        "norad_id": 35484,
        "name": "IRIDIUM 33 DEB",
        "group": "iridium-33-debris",
        "lat": 1.8679155192088142,
        "lon": -7.836195868160701,
        "alt_km": 581.1432352617576,
        "timestamp": "2025-12-14T05:42:18.847180+00:00",
        "meta_object_name": "IRIDIUM 33 DEB",
        "meta_object_id": "1997-051QE",
        "meta_epoch": "2025-12-13T07:15:48.307680",
        "meta_mean_motion": 14.98714194,
        "meta_eccentricity": 0.00237352,
        "meta_inclination": 86.3615,
        "meta_ra_of_asc_node": 352.4822,
        "meta_arg_of_pericenter": 123.3819,
        "meta_mean_anomaly": 236.9688,
        "meta_ephemeris_type": 0,
        "meta_classification_type": "U",
        "meta_norad_cat_id": 35484,
        "meta_element_set_no": 999,
        "meta_rev_at_epoch": 62024,
        "meta_bstar": 0.0048114888,
        "meta_mean_motion_dot": 0.00058609,
        "meta_mean_motion_ddot": 0,
        "tle_line1": "1 35484U 97051QE  25347.30264245  .00058609  00000+0  48115-2 0  9991",
        "tle_line2": "2 35484  86.3615 352.4822 0023735 123.3819 236.9688 14.98714194620242"
      },
      "geometry": {
        "type": "Point",
        "coordinates": [
          -7.836195868160701,
          1.8679155192088142
        ]
      }
    },
    {
      "type": "Feature",
      "properties": {
        "norad_id": 35488,
        "name": "IRIDIUM 33 DEB",
        "group": "iridium-33-debris",
        "lat": 27.123746161492626,
        "lon": -57.925011676761294,
        "alt_km": 598.0048233443567,
        "timestamp": "2025-12-14T05:42:18.847190+00:00",
        "meta_object_name": "IRIDIUM 33 DEB",
        "meta_object_id": "1997-051QJ",
        "meta_epoch": "2025-12-12T14:43:12.684864",
        "meta_mean_motion": 14.83053941,
        "meta_eccentricity": 0.00298615,
        "meta_inclination": 86.3248,
        "meta_ra_of_asc_node": 300.9369,
        "meta_arg_of_pericenter": 43.3071,
        "meta_mean_anomaly": 317.049,
        "meta_ephemeris_type": 0,
        "meta_classification_type": "U",
        "meta_norad_cat_id": 35488,
        "meta_element_set_no": 999,
        "meta_rev_at_epoch": 88264,
        "meta_bstar": 0.0023232859,
        "meta_mean_motion_dot": 0.00019104,
        "meta_mean_motion_ddot": 0,
        "tle_line1": "1 35488U 97051QJ  25346.61334126  .00019104  00000+0  23233-2 0  9995",
        "tle_line2": "2 35488  86.3248 300.9369 0029861  43.3071 317.0490 14.83053941882645"
      },
      "geometry": {
        "type": "Point",
        "coordinates": [
          -57.925011676761294,
          27.123746161492626
        ]
      }
    }
  ]
}